[{"spaceTrack":{"CCSDS_OMM_VERS":"2.0","COMMENT":"GENERATED VIA SPACE-TRACK.ORG API","CREATION_DATE":"2021-07-02T15:06:10","ORIGINATOR":"18 SPCS","OBJECT_NAME":"STARLINK-1926","OBJECT_ID":"2020-074U","CENTER_NAME":"EARTH","REF_FRAME":"TEME","TIME_SYSTEM":"UTC","MEAN_ELEMENT_THEORY":"SGP4","EPOCH":"2021-07-02T03:32:07.344672","MEAN_MOTION":15.06394635,"ECCENTRICITY":0.0001795,"INCLINATION":53.0555,"RA_OF_ASC_NODE":90.04,"ARG_OF_PERICENTER":71.5296,"MEAN_ANOMALY":288.5888,"EPHEMERIS_TYPE":0,"CLASSIFICATION_TYPE":"U","NORAD_CAT_ID":46757,"ELEMENT_SET_NO":999,"REV_AT_EPOCH":3864,"BSTAR":0.00011771,"MEAN_MOTION_DOT":0.00001472,"MEAN_MOTION_DDOT":0,"SEMIMAJOR_AXIS":6925.365,"PERIOD":95.592,"APOAPSIS":548.473,"PERIAPSIS":545.987,"OBJECT_TYPE":"PAYLOAD","RCS_SIZE":"LARGE","COUNTRY_CODE":"US","LAUNCH_DATE":"2020-10-24","SITE":"AFETR","DECAY_DATE":null,"DECAYED":0,"FILE":3068492,"GP_ID":180144633,"TLE_LINE0":"0 STARLINK-1926","TLE_LINE1":"1 46757U 20074U   21183.14730723  .00001472  00000-0  11771-3 0  9998","TLE_LINE2":"2 46757  53.0555  90.0400 0001795  71.5296 288.5888 15.06394635 38649"},"version":"v1.0","launch":"5ef6a2e70059c33cee4a8293","longitude":178.68501742631028,"latitude":-10.297542520343622,"height_km":549.9278804952964,"velocity_kms":7.587540028531403,"id":"5fa31092c4fa370006feed11"},{"spaceTrack":{"CCSDS_OMM_VERS":"2.0","COMMENT":"GENERATED VIA SPACE-TRACK.ORG API","CREATION_DATE":"2021-07-02T17:51:43","ORIGINATOR":"18 SPCS","OBJECT_NAME":"STARLINK-1865","OBJECT_ID":"2020-074C","CENTER_NAME":"EARTH","REF_FRAME":"TEME","TIME_SYSTEM":"UTC","MEAN_ELEMENT_THEORY":"SGP4","EPOCH":"2021-07-02T10:46:43.647456","MEAN_MOTION":15.06402496,"ECCENTRICITY":0.0001845,"INCLINATION":53.0547,"RA_OF_ASC_NODE":83.6894,"ARG_OF_PERICENTER":68.0368,"MEAN_ANOMALY":292.0817,"EPHEMERIS_TYPE":0,"CLASSIFICATION_TYPE":"U","NORAD_CAT_ID":46741,"ELEMENT_SET_NO":999,"REV_AT_EPOCH":3875,"BSTAR":0.00012185,"MEAN_MOTION_DOT":0.00001534,"MEAN_MOTION_DDOT":0,"SEMIMAJOR_AXIS":6925.341,"PERIOD":95.592,"APOAPSIS":548.484,"PERIAPSIS":545.928,"OBJECT_TYPE":"PAYLOAD","RCS_SIZE":"LARGE","COUNTRY_CODE":"US","LAUNCH_DATE":"2020-10-24","SITE":"AFETR","DECAY_DATE":null,"DECAYED":0,"FILE":3068555,"GP_ID":180168782,"TLE_LINE0":"0 STARLINK-1865","TLE_LINE1":"1 46741U 20074C   21183.44911629  .00001534  00000-0  12185-3 0  9999","TLE_LINE2":"2 46741  53.0547  83.6894 0001845  68.0368 292.0817 15.06402496 38754"},"version":"v1.0","launch":"5ef6a2e70059c33cee4a8293","longitude":-17.79045143103746,"latitude":23.827038995622292,"height_km":547.8151784163865,"velocity_kms":7.591543571679435,"id":"5fa31093c4fa370006feed16"},{"spaceTrack":{"CCSDS_OMM_VERS":"2.0","COMMENT":"GENERATED VIA SPACE-TRACK.ORG API","CREATION_DATE":"2021-07-02T17:51:43","ORIGINATOR":"18 SPCS","OBJECT_NAME":"STARLINK-1910","OBJECT_ID":"2020-074K","CENTER_NAME":"EARTH","REF_FRAME":"TEME","TIME_SYSTEM":"UTC","MEAN_ELEMENT_THEORY":"SGP4","EPOCH":"2021-07-02T11:07:58.163232","MEAN_MOTION":15.06399954,"ECCENTRICITY":0.0005319,"INCLINATION":53.0554,"RA_OF_ASC_NODE":83.613,"ARG_OF_PERICENTER":43.881,"MEAN_ANOMALY":316.26,"EPHEMERIS_TYPE":0,"CLASSIFICATION_TYPE":"U","NORAD_CAT_ID":46748,"ELEMENT_SET_NO":999,"REV_AT_EPOCH":3875,"BSTAR":0.00014139,"MEAN_MOTION_DOT":0.00001824,"MEAN_MOTION_DDOT":0,"SEMIMAJOR_AXIS":6925.349,"PERIOD":95.592,"APOAPSIS":550.897,"PERIAPSIS":543.53,"OBJECT_TYPE":"PAYLOAD","RCS_SIZE":"LARGE","COUNTRY_CODE":"US","LAUNCH_DATE":"2020-10-24","SITE":"AFETR","DECAY_DATE":null,"DECAYED":0,"FILE":3068555,"GP_ID":180168033,"TLE_LINE0":"0 STARLINK-1910","TLE_LINE1":"1 46748U 20074K   21183.46386763  .00001824  00000-0  14139-3 0  9996","TLE_LINE2":"2 46748  53.0554  83.6130 0005319  43.8810 316.2600 15.06399954 38758"},"version":"v1.0","launch":"5ef6a2e70059c33cee4a8293","longitude":-120.20777912818676,"latitude":48.68333004925157,"height_km":549.380687350369,"velocity_kms":7.595030671150604,"id":"5fa31092c4fa370006feed12"},{"spaceTrack":{"CCSDS_OMM_VERS":"2.0","COMMENT":"GENERATED VIA SPACE-TRACK.ORG API","CREATION_DATE":"2021-07-02T17:51:43","ORIGINATOR":"18 SPCS","OBJECT_NAME":"STARLINK-1905","OBJECT_ID":"2020-074H","CENTER_NAME":"EARTH","REF_FRAME":"TEME","TIME_SYSTEM":"UTC","MEAN_ELEMENT_THEORY":"SGP4","EPOCH":"2021-07-02T03:26:11.725728","MEAN_MOTION":15.06398997,"ECCENTRICITY":0.0001838,"INCLINATION":53.0553,"RA_OF_ASC_NODE":85.0392,"ARG_OF_PERICENTER":83.5427,"MEAN_ANOMALY":276.5771,"EPHEMERIS_TYPE":0,"CLASSIFICATION_TYPE":"U","NORAD_CAT_ID":46746,"ELEMENT_SET_NO":999,"REV_AT_EPOCH":3870,"BSTAR":-0.000021668,"MEAN_MOTION_DOT":-0.00000604,"MEAN_MOTION_DDOT":0,"SEMIMAJOR_AXIS":6925.352,"PERIOD":95.592,"APOAPSIS":548.49,"PERIAPSIS":545.944,"OBJECT_TYPE":"PAYLOAD","RCS_SIZE":"LARGE","COUNTRY_CODE":"US","LAUNCH_DATE":"2020-10-24","SITE":"AFETR","DECAY_DATE":null,"DECAYED":0,"FILE":3068555,"GP_ID":180167531,"TLE_LINE0":"0 STARLINK-1905","TLE_LINE1":"1 46746U 20074H   21183.14319127 -.00000604  00000-0 -21668-4 0  9992","TLE_LINE2":"2 46746  53.0553  85.0392 0001838  83.5427 276.5771 15.06398997 38706"},"version":"v1.0","launch":"5ef6a2e70059c33cee4a8293","longitude":-172.7806431065612,"latitude":7.621637036833931,"height_km":547.1279254144438,"velocity_kms":7.590421646180162,"id":"5fa3109329f50d0006226dac"},{"spaceTrack":{"CCSDS_OMM_VERS":"2.0","COMMENT":"GENERATED VIA SPACE-TRACK.ORG API","CREATION_DATE":"2021-07-02T17:51:43","ORIGINATOR":"18 SPCS","OBJECT_NAME":"STARLINK-1898","OBJECT_ID":"2020-074G","CENTER_NAME":"EARTH","REF_FRAME":"TEME","TIME_SYSTEM":"UTC","MEAN_ELEMENT_THEORY":"SGP4","EPOCH":"2021-07-02T09:58:57.947808","MEAN_MOTION":15.06396152,"ECCENTRICITY":0.0001719,"INCLINATION":53.0556,"RA_OF_ASC_NODE":83.8118,"ARG_OF_PERICENTER":86.8708,"MEAN_ANOMALY":273.2477,"EPHEMERIS_TYPE":0,"CLASSIFICATION_TYPE":"U","NORAD_CAT_ID":46745,"ELEMENT_SET_NO":999,"REV_AT_EPOCH":3874,"BSTAR":0.0000022284,"MEAN_MOTION_DOT":-0.00000248,"MEAN_MOTION_DDOT":0,"SEMIMAJOR_AXIS":6925.36,"PERIOD":95.592,"APOAPSIS":548.416,"PERIAPSIS":546.035,"OBJECT_TYPE":"PAYLOAD","RCS_SIZE":"LARGE","COUNTRY_CODE":"US","LAUNCH_DATE":"2020-10-24","SITE":"AFETR","DECAY_DATE":null,"DECAYED":0,"FILE":3068555,"GP_ID":180168283,"TLE_LINE0":"0 STARLINK-1898","TLE_LINE1":"1 46745U 20074G   21183.41594847 -.00000248  00000-0  22284-5 0  9994","TLE_LINE2":"2 46745  53.0556  83.8118 0001719  86.8708 273.2477 15.06396152 38748"},"version":"v1.0","launch":"5ef6a2e70059c33cee4a8293","longitude":161.97583471154965,"latitude":-24.04887226193464,"height_km":554.7059885235221,"velocity_kms":7.584042205264603,"id":"5fa31092c4fa370006feed14"},{"spaceTrack":{"CCSDS_OMM_VERS":"2.0","COMMENT":"GENERATED VIA SPACE-TRACK.ORG API","CREATION_DATE":"2021-07-02T17:51:43","ORIGINATOR":"18 SPCS","OBJECT_NAME":"STARLINK-1894","OBJECT_ID":"2020-074F","CENTER_NAME":"EARTH","REF_FRAME":"TEME","TIME_SYSTEM":"UTC","MEAN_ELEMENT_THEORY":"SGP4","EPOCH":"2021-07-02T11:02:39.513984","MEAN_MOTION":15.06391937,"ECCENTRICITY":0.0001937,"INCLINATION":53.0561,"RA_OF_ASC_NODE":83.6396,"ARG_OF_PERICENTER":69.272,"MEAN_ANOMALY":290.8476,"EPHEMERIS_TYPE":0,"CLASSIFICATION_TYPE":"U","NORAD_CAT_ID":46744,"ELEMENT_SET_NO":999,"REV_AT_EPOCH":3875,"BSTAR":-0.000038839,"MEAN_MOTION_DOT":-0.0000086,"MEAN_MOTION_DDOT":0,"SEMIMAJOR_AXIS":6925.373,"PERIOD":95.593,"APOAPSIS":548.58,"PERIAPSIS":545.897,"OBJECT_TYPE":"PAYLOAD","RCS_SIZE":"LARGE","COUNTRY_CODE":"US","LAUNCH_DATE":"2020-10-24","SITE":"AFETR","DECAY_DATE":null,"DECAYED":0,"FILE":3068555,"GP_ID":180168532,"TLE_LINE0":"0 STARLINK-1894","TLE_LINE1":"1 46744U 20074F   21183.46017956 -.00000860  00000-0 -38839-4 0  9992","TLE_LINE2":"2 46744  53.0561  83.6396 0001937  69.2720 290.8476 15.06391937 38751"},"version":"v1.0","launch":"5ef6a2e70059c33cee4a8293","longitude":-89.13937719491952,"latitude":53.20543605132533,"height_km":552.5342528468418,"velocity_kms":7.592592767312418,"id":"5fa31092c4fa370006feed15"},{"spaceTrack":{"CCSDS_OMM_VERS":"2.0","COMMENT":"GENERATED VIA SPACE-TRACK.ORG API","CREATION_DATE":"2021-07-02T17:51:43","ORIGINATOR":"18 SPCS","OBJECT_NAME":"STARLINK-1943","OBJECT_ID":"2020-074BJ","CENTER_NAME":"EARTH","REF_FRAME":"TEME","TIME_SYSTEM":"UTC","MEAN_ELEMENT_THEORY":"SGP4","EPOCH":"2021-07-02T08:22:05.015424","MEAN_MOTION":15.06400946,"ECCENTRICITY":0.0008355,"INCLINATION":53.0689,"RA_OF_ASC_NODE":54.0677,"ARG_OF_PERICENTER":1.6203,"MEAN_ANOMALY":358.4812,"EPHEMERIS_TYPE":0,"CLASSIFICATION_TYPE":"U","NORAD_CAT_ID":46795,"ELEMENT_SET_NO":999,"REV_AT_EPOCH":3916,"BSTAR":0.000081453,"MEAN_MOTION_DOT":0.0000093,"MEAN_MOTION_DDOT":0,"SEMIMAJOR_AXIS":6925.346,"PERIOD":95.592,"APOAPSIS":552.997,"PERIAPSIS":541.425,"OBJECT_TYPE":"PAYLOAD","RCS_SIZE":"LARGE","COUNTRY_CODE":"US","LAUNCH_DATE":"2020-10-24","SITE":"AFETR","DECAY_DATE":null,"DECAYED":0,"FILE":3068555,"GP_ID":180168289,"TLE_LINE0":"0 STARLINK-1943","TLE_LINE1":"1 46795U 20074BJ  21183.34866916  .00000930  00000-0  81453-4 0  9999","TLE_LINE2":"2 46795  53.0689  54.0677 0008355   1.6203 358.4812 15.06400946 39161"},"version":"v1.0","launch":"5ef6a2e70059c33cee4a8293","longitude":135.50130702627078,"latitude":-20.149803400814953,"height_km":547.7097986368526,"velocity_kms":7.591081992866269,"id":"5fa31093c4fa370006feed17"}]